[{"OBJECT_NAME":"GAOFEN-9 05","OBJECT_ID":"2020-058A","EPOCH":"2026-03-10T00:01:50.876256","MEAN_MOTION":15.30293976,"ECCENTRICITY":0.0010522,"INCLINATION":97.2228,"RA_OF_ASC_NODE":111.963,"ARG_OF_PERICENTER":91.0204,"MEAN_ANOMALY":269.2242,"EPHEMERIS_TYPE":0,"CLASSIFICATION_TYPE":"U","NORAD_CAT_ID":46232,"ELEMENT_SET_NO":999,"REV_AT_EPOCH":30843,"BSTAR":0.00025120304,"MEAN_MOTION_DOT":7.299e-5,"MEAN_MOTION_DDOT":0},{"OBJECT_NAME":"STARLINK-31386","OBJECT_ID":"2024-056C","EPOCH":"2026-03-09T11:41:37.442688","MEAN_MOTION":15.27572805,"ECCENTRICITY":0.00014526,"INCLINATION":43.0015,"RA_OF_ASC_NODE":231.8274,"ARG_OF_PERICENTER":278.0938,"MEAN_ANOMALY":81.9748,"EPHEMERIS_TYPE":0,"CLASSIFICATION_TYPE":"U","NORAD_CAT_ID":59298,"ELEMENT_SET_NO":999,"REV_AT_EPOCH":11112,"BSTAR":1.0709417e-5,"MEAN_MOTION_DOT":3.2e-7,"MEAN_MOTION_DDOT":0}]
